ALOS (DAICHI)           
1 28931U 06002A   26114.86106014  .00000848  00000+0  14999-3 0  9995
2 28931  98.1286  70.6123 0001897 105.0241 255.1174 14.69935268 80260
H-2A R/B                
1 28932U 06002B   26114.84981916  .00007254  00000+0  35450-3 0  9999
2 28932  98.2498 265.9043 0052490  84.9764 275.7456 15.17363400101438
RESURS-DK 1             
1 29228U 06021A   26114.42136365  .00001820  00000+0  10904-3 0  9993
2 29228  69.9298 118.7058 0003150 343.1539  16.9522 15.12978184 94447
CZ-4B R/B               
1 29507U 06046C   26114.84412132  .00003778  00000+0  18997-3 0  9999
2 29507  97.5509 159.6203 0034592 107.0682 253.4345 15.17339631 67045
CZ-2C R/B               
1 31114U 07010B   26114.87078719  .00000088  00000+0  59288-4 0  9990
2 31114  98.4035 225.8466 0059514 158.9415 201.4232 14.20261972986271
COSMO-SKYMED 1          
1 31598U 07023A   26114.79430999  .00002197  00000+0  19700-3 0  9990
2 31598  97.8870 306.2062 0001263 101.5881 258.5482 14.96831105 21805
COSMOS 2428             
1 31792U 07029A   26114.33906553 -.00000195  00000+0 -78745-4 0  9999
2 31792  70.9391 107.5270 0009153 226.8285 133.2072 14.12945671970549
SL-16 R/B               
1 31793U 07029B   26114.68230007  .00000298  00000+0  17921-3 0  9992
2 31793  70.9744  75.7014 0002527 268.2888 264.8068 14.14844066971872
KORONAS-FOTON           
1 33504U 09003A   26114.77997911  .00010735  00000+0  23017-3 0  9992
2 33504  82.4311 227.9148 0009824 355.5055   4.6103 15.44530714952857
CZ-2C R/B               
1 37731U 11030B   26114.88329936  .00000781  00000+0  10467-3 0  9994
2 37731  97.8614  71.2510 0051851 198.5082 222.3105 14.81352898796935
H-2A R/B                
1 38341U 12025E   26114.83376184  .00001425  00000+0  13269-3 0  9998
2 38341  98.4796  85.6084 0044516 160.1404 200.1560 14.95434237755116
SHIJIAN-16 (SJ-16)      
1 39358U 13057A   26114.81638388  .00000376  00000+0  39493-4 0  9990
2 39358  74.9711  97.7547 0016165 354.6704   5.4309 14.92470501678382
SL-4 R/B                
1 39679U 14021B   26114.24862669  .00009795  00000+0  21233-3 0  9992
2 39679  51.6058 114.7549 0092759 269.7005  89.3350 15.40639641663296
ALOS-2                  
1 39766U 14029A   26114.84449615  .00000537  00000+0  78806-4 0  9999
2 39766  97.9196 212.7713 0001832  86.4937 273.6484 14.79472758643694
YAOGAN-29               
1 41038U 15069A   26114.80972530 -.00000372  00000+0 -39145-4 0  9994
2 41038  98.0078 143.3493 0001645 141.4039 218.7293 14.83037365562718
ASTRO-H (HITOMI)        
1 41337U 16012A   26114.17454306  .00002467  00000+0  14134-3 0  9996
2 41337  30.9994  62.9538 0009395  69.1754 290.9890 15.10263809559118
HXMT (HUIYAN)           
1 42758U 17034A   26114.84473994  .00002316  00000+0  12231-3 0  9996
2 42758  43.0136 119.9521 0031264 169.3708 190.7807 15.17981767489558
