[{"OBJECT_NAME":"ALOS (DAICHI)","OBJECT_ID":"2006-002A","EPOCH":"2026-04-24T20:39:55.596096","MEAN_MOTION":14.69935268,"ECCENTRICITY":0.0001897,"INCLINATION":98.1286,"RA_OF_ASC_NODE":70.6123,"ARG_OF_PERICENTER":105.0241,"MEAN_ANOMALY":255.1174,"EPHEMERIS_TYPE":0,"CLASSIFICATION_TYPE":"U","NORAD_CAT_ID":28931,"ELEMENT_SET_NO":999,"REV_AT_EPOCH":8026,"BSTAR":0.00014999,"MEAN_MOTION_DOT":8.48e-6,"MEAN_MOTION_DDOT":0},{"OBJECT_NAME":"H-2A R/B","OBJECT_ID":"2006-002B","EPOCH":"2026-04-24T20:23:44.375424","MEAN_MOTION":15.173634,"ECCENTRICITY":0.005249,"INCLINATION":98.2498,"RA_OF_ASC_NODE":265.9043,"ARG_OF_PERICENTER":84.9764,"MEAN_ANOMALY":275.7456,"EPHEMERIS_TYPE":0,"CLASSIFICATION_TYPE":"U","NORAD_CAT_ID":28932,"ELEMENT_SET_NO":999,"REV_AT_EPOCH":10143,"BSTAR":0.0003545,"MEAN_MOTION_DOT":7.254e-5,"MEAN_MOTION_DDOT":0},{"OBJECT_NAME":"RESURS-DK 1","OBJECT_ID":"2006-021A","EPOCH":"2026-04-24T10:06:45.819360","MEAN_MOTION":15.12978184,"ECCENTRICITY":0.000315,"INCLINATION":69.9298,"RA_OF_ASC_NODE":118.7058,"ARG_OF_PERICENTER":343.1539,"MEAN_ANOMALY":16.9522,"EPHEMERIS_TYPE":0,"CLASSIFICATION_TYPE":"U","NORAD_CAT_ID":29228,"ELEMENT_SET_NO":999,"REV_AT_EPOCH":9444,"BSTAR":0.00010904,"MEAN_MOTION_DOT":1.82e-5,"MEAN_MOTION_DDOT":0},{"OBJECT_NAME":"CZ-4B R/B","OBJECT_ID":"2006-046C","EPOCH":"2026-04-24T20:15:32.082048","MEAN_MOTION":15.17339631,"ECCENTRICITY":0.0034592,"INCLINATION":97.5509,"RA_OF_ASC_NODE":159.6203,"ARG_OF_PERICENTER":107.0682,"MEAN_ANOMALY":253.4345,"EPHEMERIS_TYPE":0,"CLASSIFICATION_TYPE":"U","NORAD_CAT_ID":29507,"ELEMENT_SET_NO":999,"REV_AT_EPOCH":6704,"BSTAR":0.00018997,"MEAN_MOTION_DOT":3.778e-5,"MEAN_MOTION_DDOT":0},{"OBJECT_NAME":"CZ-2C R/B","OBJECT_ID":"2007-010B","EPOCH":"2026-04-24T20:53:56.013216","MEAN_MOTION":14.20261972,"ECCENTRICITY":0.0059514,"INCLINATION":98.4035,"RA_OF_ASC_NODE":225.8466,"ARG_OF_PERICENTER":158.9415,"MEAN_ANOMALY":201.4232,"EPHEMERIS_TYPE":0,"CLASSIFICATION_TYPE":"U","NORAD_CAT_ID":31114,"ELEMENT_SET_NO":999,"REV_AT_EPOCH":98627,"BSTAR":5.9288e-5,"MEAN_MOTION_DOT":8.8e-7,"MEAN_MOTION_DDOT":0},{"OBJECT_NAME":"COSMO-SKYMED 1","OBJECT_ID":"2007-023A","EPOCH":"2026-04-24T19:03:48.383136","MEAN_MOTION":14.96831105,"ECCENTRICITY":0.0001263,"INCLINATION":97.887,"RA_OF_ASC_NODE":306.2062,"ARG_OF_PERICENTER":101.5881,"MEAN_ANOMALY":258.5482,"EPHEMERIS_TYPE":0,"CLASSIFICATION_TYPE":"U","NORAD_CAT_ID":31598,"ELEMENT_SET_NO":999,"REV_AT_EPOCH":2180,"BSTAR":0.000197,"MEAN_MOTION_DOT":2.197e-5,"MEAN_MOTION_DDOT":0},{"OBJECT_NAME":"COSMOS 2428","OBJECT_ID":"2007-029A","EPOCH":"2026-04-24T08:08:15.261792","MEAN_MOTION":14.12945671,"ECCENTRICITY":0.0009153,"INCLINATION":70.9391,"RA_OF_ASC_NODE":107.527,"ARG_OF_PERICENTER":226.8285,"MEAN_ANOMALY":133.2072,"EPHEMERIS_TYPE":0,"CLASSIFICATION_TYPE":"U","NORAD_CAT_ID":31792,"ELEMENT_SET_NO":999,"REV_AT_EPOCH":97054,"BSTAR":-7.8745e-5,"MEAN_MOTION_DOT":-1.95e-6,"MEAN_MOTION_DDOT":0},{"OBJECT_NAME":"SL-16 R/B","OBJECT_ID":"2007-029B","EPOCH":"2026-04-24T16:22:30.726048","MEAN_MOTION":14.14844066,"ECCENTRICITY":0.0002527,"INCLINATION":70.9744,"RA_OF_ASC_NODE":75.7014,"ARG_OF_PERICENTER":268.2888,"MEAN_ANOMALY":264.8068,"EPHEMERIS_TYPE":0,"CLASSIFICATION_TYPE":"U","NORAD_CAT_ID":31793,"ELEMENT_SET_NO":999,"REV_AT_EPOCH":97187,"BSTAR":0.00017921,"MEAN_MOTION_DOT":2.98e-6,"MEAN_MOTION_DDOT":0},{"OBJECT_NAME":"KORONAS-FOTON","OBJECT_ID":"2009-003A","EPOCH":"2026-04-24T18:43:10.195104","MEAN_MOTION":15.44530714,"ECCENTRICITY":0.0009824,"INCLINATION":82.4311,"RA_OF_ASC_NODE":227.9148,"ARG_OF_PERICENTER":355.5055,"MEAN_ANOMALY":4.6103,"EPHEMERIS_TYPE":0,"CLASSIFICATION_TYPE":"U","NORAD_CAT_ID":33504,"ELEMENT_SET_NO":999,"REV_AT_EPOCH":95285,"BSTAR":0.00023017,"MEAN_MOTION_DOT":0.00010735,"MEAN_MOTION_DDOT":0},{"OBJECT_NAME":"CZ-2C R/B","OBJECT_ID":"2011-030B","EPOCH":"2026-04-24T21:11:57.064704","MEAN_MOTION":14.81352898,"ECCENTRICITY":0.0051851,"INCLINATION":97.8614,"RA_OF_ASC_NODE":71.251,"ARG_OF_PERICENTER":198.5082,"MEAN_ANOMALY":222.3105,"EPHEMERIS_TYPE":0,"CLASSIFICATION_TYPE":"U","NORAD_CAT_ID":37731,"ELEMENT_SET_NO":999,"REV_AT_EPOCH":79693,"BSTAR":0.00010467,"MEAN_MOTION_DOT":7.81e-6,"MEAN_MOTION_DDOT":0},{"OBJECT_NAME":"H-2A R/B","OBJECT_ID":"2012-025E","EPOCH":"2026-04-24T20:00:37.022976","MEAN_MOTION":14.95434237,"ECCENTRICITY":0.0044516,"INCLINATION":98.4796,"RA_OF_ASC_NODE":85.6084,"ARG_OF_PERICENTER":160.1404,"MEAN_ANOMALY":200.156,"EPHEMERIS_TYPE":0,"CLASSIFICATION_TYPE":"U","NORAD_CAT_ID":38341,"ELEMENT_SET_NO":999,"REV_AT_EPOCH":75511,"BSTAR":0.00013269,"MEAN_MOTION_DOT":1.425e-5,"MEAN_MOTION_DDOT":0},{"OBJECT_NAME":"SHIJIAN-16 (SJ-16)","OBJECT_ID":"2013-057A","EPOCH":"2026-04-24T19:35:35.567232","MEAN_MOTION":14.92470501,"ECCENTRICITY":0.0016165,"INCLINATION":74.9711,"RA_OF_ASC_NODE":97.7547,"ARG_OF_PERICENTER":354.6704,"MEAN_ANOMALY":5.4309,"EPHEMERIS_TYPE":0,"CLASSIFICATION_TYPE":"U","NORAD_CAT_ID":39358,"ELEMENT_SET_NO":999,"REV_AT_EPOCH":67838,"BSTAR":3.9493e-5,"MEAN_MOTION_DOT":3.76e-6,"MEAN_MOTION_DDOT":0},{"OBJECT_NAME":"SL-4 R/B","OBJECT_ID":"2014-021B","EPOCH":"2026-04-24T05:58:01.346016","MEAN_MOTION":15.40639641,"ECCENTRICITY":0.0092759,"INCLINATION":51.6058,"RA_OF_ASC_NODE":114.7549,"ARG_OF_PERICENTER":269.7005,"MEAN_ANOMALY":89.335,"EPHEMERIS_TYPE":0,"CLASSIFICATION_TYPE":"U","NORAD_CAT_ID":39679,"ELEMENT_SET_NO":999,"REV_AT_EPOCH":66329,"BSTAR":0.00021233,"MEAN_MOTION_DOT":9.795e-5,"MEAN_MOTION_DDOT":0},{"OBJECT_NAME":"ALOS-2","OBJECT_ID":"2014-029A","EPOCH":"2026-04-24T20:16:04.467360","MEAN_MOTION":14.79472758,"ECCENTRICITY":0.0001832,"INCLINATION":97.9196,"RA_OF_ASC_NODE":212.7713,"ARG_OF_PERICENTER":86.4937,"MEAN_ANOMALY":273.6484,"EPHEMERIS_TYPE":0,"CLASSIFICATION_TYPE":"U","NORAD_CAT_ID":39766,"ELEMENT_SET_NO":999,"REV_AT_EPOCH":64369,"BSTAR":7.8806e-5,"MEAN_MOTION_DOT":5.37e-6,"MEAN_MOTION_DDOT":0},{"OBJECT_NAME":"YAOGAN-29","OBJECT_ID":"2015-069A","EPOCH":"2026-04-24T19:26:00.265920","MEAN_MOTION":14.83037365,"ECCENTRICITY":0.0001645,"INCLINATION":98.0078,"RA_OF_ASC_NODE":143.3493,"ARG_OF_PERICENTER":141.4039,"MEAN_ANOMALY":218.7293,"EPHEMERIS_TYPE":0,"CLASSIFICATION_TYPE":"U","NORAD_CAT_ID":41038,"ELEMENT_SET_NO":999,"REV_AT_EPOCH":56271,"BSTAR":-3.9145e-5,"MEAN_MOTION_DOT":-3.72e-6,"MEAN_MOTION_DDOT":0},{"OBJECT_NAME":"ASTRO-H (HITOMI)","OBJECT_ID":"2016-012A","EPOCH":"2026-04-24T04:11:20.520384","MEAN_MOTION":15.10263809,"ECCENTRICITY":0.00093951,"INCLINATION":30.9994,"RA_OF_ASC_NODE":62.9538,"ARG_OF_PERICENTER":69.1754,"MEAN_ANOMALY":290.989,"EPHEMERIS_TYPE":0,"CLASSIFICATION_TYPE":"U","NORAD_CAT_ID":41337,"ELEMENT_SET_NO":999,"REV_AT_EPOCH":55911,"BSTAR":0.00014133706,"MEAN_MOTION_DOT":2.467e-5,"MEAN_MOTION_DDOT":0},{"OBJECT_NAME":"HXMT (HUIYAN)","OBJECT_ID":"2017-034A","EPOCH":"2026-04-24T20:16:25.530816","MEAN_MOTION":15.17981767,"ECCENTRICITY":0.0031264,"INCLINATION":43.0136,"RA_OF_ASC_NODE":119.9521,"ARG_OF_PERICENTER":169.3708,"MEAN_ANOMALY":190.7807,"EPHEMERIS_TYPE":0,"CLASSIFICATION_TYPE":"U","NORAD_CAT_ID":42758,"ELEMENT_SET_NO":999,"REV_AT_EPOCH":48955,"BSTAR":0.00012231,"MEAN_MOTION_DOT":2.316e-5,"MEAN_MOTION_DDOT":0}]
